[{"OBJECT_NAME":"STARLINK-6086","OBJECT_ID":"2023-065AU","EPOCH":"2026-03-09T22:00:01.999584","MEAN_MOTION":15.14957238,"ECCENTRICITY":0.00012443,"INCLINATION":43.0008,"RA_OF_ASC_NODE":221.4166,"ARG_OF_PERICENTER":294.4132,"MEAN_ANOMALY":193.3936,"EPHEMERIS_TYPE":0,"CLASSIFICATION_TYPE":"U","NORAD_CAT_ID":56545,"ELEMENT_SET_NO":999,"REV_AT_EPOCH":577,"BSTAR":0.0067499793,"MEAN_MOTION_DOT":0.00130285,"MEAN_MOTION_DDOT":0},{"OBJECT_NAME":"YAOGAN-39 04B","OBJECT_ID":"2023-163C","EPOCH":"2026-03-09T21:42:05.108256","MEAN_MOTION":15.16740453,"ECCENTRICITY":0.00026845,"INCLINATION":34.9928,"RA_OF_ASC_NODE":267.8227,"ARG_OF_PERICENTER":59.5267,"MEAN_ANOMALY":300.571,"EPHEMERIS_TYPE":0,"CLASSIFICATION_TYPE":"U","NORAD_CAT_ID":58143,"ELEMENT_SET_NO":999,"REV_AT_EPOCH":13222,"BSTAR":0.00037765963,"MEAN_MOTION_DOT":7.552e-5,"MEAN_MOTION_DDOT":0}]
